SL-3 R/B                
1 19046U 88032B   19072.18035160  .00000888  00000-0  70354-4 0  9991
2 19046  97.4473 107.5682 0037248 339.1357  20.8346 15.02537612667835
SL-16 R/B               
1 19120U 88039B   19072.37928805 -.00000087  00000-0 -18584-4 0  9999
2 19120  71.0125  64.8883 0024114 293.1009  66.7574 14.19192797596368
COSMOS 1953             
1 19210U 88050A   19072.55733443 -.00000132  00000-0 -11139-4 0  9994
2 19210  82.5171 138.0962 0011635 251.7341 108.2621 15.05727401673285
SL-8 R/B                
1 19257U 88053B   19072.54021682  .00000038  00000-0  21395-4 0  9990
2 19257  74.0484 130.2851 0021365 226.4168 236.0335 14.37426785609913
COSMOS 1975             
1 19573U 88093A   19072.53019548  .00000788  00000-0  54034-4 0  9990
2 19573  82.5173  91.5143 0013015 301.3081  58.6871 15.04637450655187
SL-14 R/B               
1 19574U 88093B   19072.53692170  .00000057  00000-0  39601-5 0  9992
2 19574  82.5289 271.9562 0021536 181.1019 235.1592 14.83291046643482
SL-16 R/B               
1 19650U 88102B   19072.55328982 -.00000260  00000-0 -10762-3 0  9990
2 19650  70.9985 121.1840 0016492 293.3613  66.5775 14.15775798565788
INTERCOSMOS 24          
1 20261U 89080A   19072.43570671  .00000162  00000-0  38978-4 0  9996
2 20261  82.6052 319.2441 1203832  73.9320 299.0753 12.56053098345582
SL-14 R/B               
1 20262U 89080C   19072.34379506  .00000002  00000-0 -37684-6 0  9990
2 20262  82.5997   9.9128 1235852 250.7476  95.6106 12.48913317340878
DELTA 1 R/B             
1 20323U 89089B   19072.50985164  .00000024  00000-0  15483-4 0  9992
2 20323  97.0786 288.2024 0070369 244.9496 114.4384 14.48292570546538
DELTA 2 R/B(1)          
1 20453U 90008B   19072.48924635  .00000651  00000-0  40461-4 0  9992
2 20453  35.6241  98.6407 0283111  50.9056 311.6480 14.84766326542485
COSMOS 2058             
1 20465U 90010A   19072.18811887  .00000259  00000-0  19737-4 0  9995
2 20465  82.4925 358.1060 0014554 324.0209  36.0033 14.97841264580230
SL-14 R/B               
1 20466U 90010B   19072.18644923  .00000067  00000-0  55551-5 0  9993
2 20466  82.5038 139.3777 0021830  58.5723 301.7621 14.81349004571352
SL-14 R/B               
1 20511U 90018B   19072.57391573  .00000037  00000-0  18176-5 0  9994
2 20511  82.5202  83.3222 0017200 187.7091 292.5975 14.80005602565891
HST                     
1 20580U 90037B   19072.16733609  .00000439  00000-0  15797-4 0  9997
2 20580  28.4690 136.7956 0002780 150.2056  59.2571 15.09186155386141
SL-16 R/B               
1 20625U 90046B   19071.92003649  .00000152  00000-0  10399-3 0  9998
2 20625  70.9963 259.0284 0015964 229.3191 130.6545 14.14636879487207
COSMOS 2084             
1 20663U 90055A   19071.94065907  .00000021  00000-0  20277-4 0  9999
2 20663  62.7926 272.3715 0090371 155.5065 205.0364 14.91949268554350
SL-6 R/B(2)             
1 20666U 90055D   19072.54250644 -.00000006  00000-0  17628-4 0  9993
2 20666  62.7861 187.7794 0056290 183.1912 176.8831 14.92222152555832
SL-8 R/B                
1 20775U 90078B   19072.50855762  .00003401  00000-0  16682-3 0  9996
2 20775  82.9251 247.1537 0578879 184.2168 175.4036 14.33000191439546
SL-8 R/B                
1 21088U 91006B   19072.08767774  .00000104  00000-0  89708-4 0  9991
2 21088  82.9386 268.9743 0022269 349.0308 131.2016 13.77112499412841
OKEAN-3                 
1 21397U 91039A   19072.02434730  .00000224  00000-0  19176-4 0  9992
2 21397  82.5189 256.1849 0016377 277.7131  82.2229 14.92773989504333
COSMOS 2151             
1 21422U 91042A   19072.19888191  .00000144  00000-0  11715-4 0  9999
2 21422  82.5034   3.0113 0013753 343.6041  16.4731 14.92028106503039
SL-14 R/B               
1 21423U 91042B   19072.14856097  .00000073  00000-0  65964-5 0  9992
2 21423  82.4910  88.9716 0016975 338.6443  21.4059 14.79756922496334
ERS-1                   
1 21574U 91050A   19071.88964968  .00000042  00000-0  28598-4 0  9992
2 21574  98.5391  21.7812 0032087 223.2579 136.6088 14.37684403448656
ARIANE 40 R/B           
1 21610U 91050F   19071.79441830 -.00000027  00000-0  55179-5 0  9991
2 21610  98.5197 139.1715 0003045 185.8124 284.2339 14.40864407451356
INTERCOSMOS 25          
1 21819U 91086A   19072.47338564 -.00000051  00000-0 -15063-4 0  9991
2 21819  82.5879  42.8338 1518365 176.3054 185.0932 12.04956157188662
SL-14 R/B               
1 21820U 91086B   19071.90305742  .00000085  00000-0  11412-4 0  9991
2 21820  82.5565 104.6444 1576658  31.0412 337.4840 11.93435340182371
SL-8 R/B                
1 21876U 92008B   19071.93375441  .00000060  00000-0  46047-4 0  9998
2 21876  82.9307   6.1850 0036118  65.8933   0.5850 13.75636768358284
SL-8 R/B                
1 21938U 92020B   19071.90395535  .00000146  00000-0  13594-3 0  9999
2 21938  82.9269 249.9683 0028378 222.3117 245.5790 13.75271151350090
SL-16 R/B               
1 22220U 92076B   19072.58031542  .00000038  00000-0  43330-4 0  9997
2 22220  70.9995 163.8516 0011950  16.5519  77.0964 14.16442748360601
SL-16 R/B               
1 22285U 92093B   19071.91315303 -.00000244  00000-0 -10159-3 0  9996
2 22285  71.0233 322.8629 0006528 252.3040 107.7370 14.15032384351900
COSMOS 2228             
1 22286U 92094A   19072.22044350  .00000170  00000-0  15729-4 0  9999
2 22286  82.5204 136.0526 0021486 172.0921 188.0639 14.88021897416777
SL-16 R/B               
1 22566U 93016B   19071.91476879 -.00000133  00000-0 -43944-4 0  9996
2 22566  71.0076 176.6705 0012541 252.4246 107.5507 14.14953244340902
COSMOS 2242             
1 22626U 93024A   19072.22132393  .00000149  00000-0  13525-4 0  9994
2 22626  82.5244 163.9820 0019340 171.4656 188.6895 14.87882159400429
SL-16 R/B               
1 22803U 93059B   19072.38290197  .00000222  00000-0  13465-3 0  9997
2 22803  70.9928 353.0139 0015950 146.2927 213.9214 14.16805654318113
ARIANE 40 R/B           
1 22830U 93061H   19072.54778524 -.00000051  00000-0 -20170-5 0  9998
2 22830  98.8282 110.7453 0010130 230.3884 129.6405 14.31429765328998
COSMOS 2278             
1 23087U 94023A   19071.52479812  .00000066  00000-0  59660-4 0  9996
2 23087  71.0512 115.2497 0009900 316.8564  43.1782 14.13775468284014
SL-16 R/B               
1 23088U 94023B   19071.89784158 -.00000148  00000-0 -52071-4 0  9991
2 23088  71.0022  31.9789 0005272 241.1831 118.8762 14.14677533284893
SL-16 R/B               
1 23343U 94074B   19072.57512635  .00000008  00000-0  86172-5 0  9999
2 23343  98.0665 122.7462 0006688 185.3789 334.2914 14.76768183310454
SL-16 R/B               
1 23405U 94077B   19072.15668140  .00000275  00000-0  16630-3 0  9994
2 23405  70.9844 322.4738 0000561  54.1629 305.9546 14.15207241255209
ERS-2                   
1 23560U 95021A   19071.83444982  .00000792  00000-0  38158-4 0  9990
2 23560  98.5036 158.9227 0002554 327.1901  32.9173 15.22348079271716
ARIANE 40+ R/B          
1 23561U 95021B   19071.93147221  .00000009  00000-0  18225-4 0  9992
2 23561  98.7764  97.5753 0007053 175.3278 249.3949 14.37911353252101
SL-16 R/B               
1 23705U 95058B   19071.59381211  .00000059  00000-0  54828-4 0  9997
2 23705  71.0213 140.0928 0010768  46.0696 314.1314 14.15120886206797
SL-16 R/B               
1 24298U 96051B   19071.70702296 -.00000030  00000-0  10166-4 0  9999
2 24298  70.8259 166.3794 0017216 309.9500  50.0107 14.12391391161271
ORBVIEW 2 (SEASTAR)     
1 24883U 97037A   19072.40770026  .00000039  00000-0  30011-4 0  9997
2 24883  98.5741 183.9870 0002981  52.5255 307.6200 14.33493354142779
SL-16 R/B               
1 25400U 98043G   19071.85871980 -.00000021  00000-0  94449-5 0  9998
2 25400  98.5641  12.5122 0008901 241.4775 118.5509 14.25438197 75114
SL-16 R/B               
1 25407U 98045B   19071.77485828 -.00000221  00000-0 -87918-4 0  9995
2 25407  71.0105 149.9479 0009385 309.3915  50.6376 14.15783469 65592
ISS (ZARYA)             
1 25544U 98067A   19072.58486381 -.00000050  00000-0  67055-5 0  9996
2 25544  51.6411 116.5260 0004049 100.8410  14.7809 15.52801380160405
SL-8 R/B                
1 25723U 99022C   19071.89948478  .00009391  00000-0  10342-3 0  9991
2 25723  48.4152   3.8848 0007650 232.4766 127.5488 15.63758553105058
CZ-4B R/B               
1 25732U 99025C   19071.97614257 -.00000040  00000-0  25439-5 0  9996
2 25732  98.9844  91.4205 0038403  87.9436 327.9480 14.17660476 26293
OKEAN-O                 
1 25860U 99039A   19072.50582575  .00000020  00000-0  10557-4 0  9991
2 25860  98.2277  77.9811 0000763  94.2228 265.9068 14.76593839 57434
SL-16 R/B               
1 25861U 99039B   19071.97917406  .00000022  00000-0  10472-4 0  9995
2 25861  98.1826  60.6778 0015183 198.8369 223.4205 14.78519987 59421
TERRA                   
1 25994U 99068A   19072.23071510  .00000061  00000-0  23535-4 0  9998
2 25994  98.2094 148.1797 0001327  62.0896 298.0440 14.57108205 23009
ENVISAT                 
1 27386U 02009A   19072.55097019 -.00000001  00000-0  13058-4 0  9995
2 27386  98.1589  98.4996 0001319  98.7116  74.3043 14.37943245892236
IDEFIX & ARIANE 42P R/B 
1 27422U 02021B   19072.55840264 -.00000014  00000-0  10628-4 0  9992
2 27422  98.2899  49.4822 0012698 152.0065 208.1803 14.29268423877294
AQUA                    
1 27424U 02022A   19071.92036753  .00000068  00000-0  25256-4 0  9996
2 27424  98.2172  14.2444 0001896  15.7025  55.1879 14.57102210896510
CZ-4B R/B               
1 27432U 02024C   19072.52082789 -.00000020  00000-0  13488-4 0  9997
2 27432  99.0640  62.4378 0051164  40.6748  65.8577 14.14076504868444
MIDORI II (ADEOS-II)    
1 27597U 02056A   19071.89946728  .00000045  00000-0  35735-4 0  9990
2 27597  98.4607  27.7432 0000210  65.3908 294.7296 14.27388112845828
H-2A R/B                
1 27601U 02056E   19071.94942946  .00000034  00000-0  27455-4 0  9998
2 27601  98.2896 124.8855 0071610 213.0756 247.6401 14.31882404848506
